[{"OBJECT_NAME":"STARLINK-2381","OBJECT_ID":"2021-018P","EPOCH":"2026-03-09T18:06:06.238368","MEAN_MOTION":15.06395474,"ECCENTRICITY":0.00012146,"INCLINATION":53.0549,"RA_OF_ASC_NODE":231.3271,"ARG_OF_PERICENTER":93.1131,"MEAN_ANOMALY":266.9997,"EPHEMERIS_TYPE":0,"CLASSIFICATION_TYPE":"U","NORAD_CAT_ID":47800,"ELEMENT_SET_NO":999,"REV_AT_EPOCH":27688,"BSTAR":1.303931e-6,"MEAN_MOTION_DOT":-2.62e-6,"MEAN_MOTION_DDOT":0},{"OBJECT_NAME":"CENTAURI-6","OBJECT_ID":"2024-066K","EPOCH":"2026-03-09T07:44:58.674048","MEAN_MOTION":15.04786474,"ECCENTRICITY":0.00025343,"INCLINATION":45.6063,"RA_OF_ASC_NODE":55.7055,"ARG_OF_PERICENTER":285.4438,"MEAN_ANOMALY":74.6166,"EPHEMERIS_TYPE":0,"CLASSIFICATION_TYPE":"U","NORAD_CAT_ID":59451,"ELEMENT_SET_NO":999,"REV_AT_EPOCH":10507,"BSTAR":0.00052686271,"MEAN_MOTION_DOT":7.311e-5,"MEAN_MOTION_DDOT":0}]
