STARLINK-2381           
1 47800U 21018P   26068.75423887 -.00000262  00000+0  13039-5 0  9998
2 47800  53.0549 231.3271 0001215  93.1131 266.9997 15.06395474276886
CENTAURI-6              
1 59451U 24066K   26068.32290132  .00007311  00000+0  52686-3 0  9997
2 59451  45.6063  55.7055 0002534 285.4438  74.6166 15.04786474105074
